[{"CCSDS_OMM_VERS":"3.0","COMMENT":"GENERATED VIA SPACE-TRACK.ORG API","CREATION_DATE":"2015-01-13T19:11:08","ORIGINATOR":"18 SPCS","OBJECT_NAME":"COSMOS 2251 DEB","OBJECT_ID":"1993-036BNC","CENTER_NAME":"EARTH","REF_FRAME":"TEME","TIME_SYSTEM":"UTC","MEAN_ELEMENT_THEORY":"SGP4","EPOCH":"2015-01-12T02:22:53.238720","MEAN_MOTION":"15.26111020","ECCENTRICITY":"0.00083400","INCLINATION":"73.9900","RA_OF_ASC_NODE":"170.5906","ARG_OF_PERICENTER":"230.2770","MEAN_ANOMALY":"96.7590","EPHEMERIS_TYPE":"0","CLASSIFICATION_TYPE":"U","NORAD_CAT_ID":"37523","ELEMENT_SET_NO":"999","REV_AT_EPOCH":"28492","BSTAR":"0.00908050000000","MEAN_MOTION_DOT":"0.00242345","MEAN_MOTION_DDOT":"0.0000000000000","SEMIMAJOR_AXIS":"6865.588","PERIOD":"94.357","APOAPSIS":"493.179","PERIAPSIS":"481.727","OBJECT_TYPE":"DEBRIS","RCS_SIZE":"SMALL","COUNTRY_CODE":"CIS","LAUNCH_DATE":"1993-06-16","SITE":"PKMTR","DECAY_DATE":"2015-02-22","FILE":"1809930","GP_ID":"98070596","TLE_LINE0":"0 COSMOS 2251 DEB","TLE_LINE1":"1 37523U 93036BNC 15012.09922730  .00242345  00000-0  90805-2 0  9996","TLE_LINE2":"2 37523 073.9900 170.5906 0008340 230.2770 096.7590 15.26111020284924"},{"CCSDS_OMM_VERS":"3.0","COMMENT":"GENERATED VIA SPACE-TRACK.ORG API","CREATION_DATE":"2015-06-03T15:24:45","ORIGINATOR":"18 SPCS","OBJECT_NAME":"COSMOS 2251 DEB","OBJECT_ID":"1993-036BND","CENTER_NAME":"EARTH","REF_FRAME":"TEME","TIME_SYSTEM":"UTC","MEAN_ELEMENT_THEORY":"SGP4","EPOCH":"2013-05-14T18:56:31.053984","MEAN_MOTION":"14.85334949","ECCENTRICITY":"0.00626090","INCLINATION":"74.0411","RA_OF_ASC_NODE":"283.6216","ARG_OF_PERICENTER":"110.0704","MEAN_ANOMALY":"266.2117","EPHEMERIS_TYPE":"0","CLASSIFICATION_TYPE":"U","NORAD_CAT_ID":"37524","ELEMENT_SET_NO":"999","REV_AT_EPOCH":"20576","BSTAR":"0.00618910000000","MEAN_MOTION_DOT":"0.00055533","MEAN_MOTION_DDOT":"0.0000000000000","SEMIMAJOR_AXIS":"6990.671","PERIOD":"96.947","APOAPSIS":"656.304","PERIAPSIS":"568.768","OBJECT_TYPE":"DEBRIS","RCS_SIZE":"SMALL","COUNTRY_CODE":"CIS","LAUNCH_DATE":"1993-06-16","SITE":"PKMTR","DECAY_DATE":"2014-07-14","FILE":"1880656","GP_ID":"99326464","TLE_LINE0":"0 COSMOS 2251 DEB","TLE_LINE1":"1 37524U 93036BND 13134.78924831  .00055533  00000-0  61891-2 0  9994","TLE_LINE2":"2 37524 074.0411 283.6216 0062609 110.0704 266.2117 14.85334949205769"},{"CCSDS_OMM_VERS":"3.0","COMMENT":"GENERATED VIA SPACE-TRACK.ORG API","CREATION_DATE":"2012-02-07T08:39:43","ORIGINATOR":"18 SPCS","OBJECT_NAME":"COSMOS 2251 DEB","OBJECT_ID":"1993-036BNE","CENTER_NAME":"EARTH","REF_FRAME":"TEME","TIME_SYSTEM":"UTC","MEAN_ELEMENT_THEORY":"SGP4","EPOCH":"2011-09-24T17:30:53.266752","MEAN_MOTION":"15.03076548","ECCENTRICITY":"0.01256500","INCLINATION":"73.9632","RA_OF_ASC_NODE":"275.7638","ARG_OF_PERICENTER":"310.6172","MEAN_ANOMALY":"71.5382","EPHEMERIS_TYPE":"0","CLASSIFICATION_TYPE":"U","NORAD_CAT_ID":"37525","ELEMENT_SET_NO":"999","REV_AT_EPOCH":"10797","BSTAR":"0.01328300000000","MEAN_MOTION_DOT":"0.00218593","MEAN_MOTION_DDOT":"0.0000000000000","SEMIMAJOR_AXIS":"6935.557","PERIOD":"95.803","APOAPSIS":"644.567","PERIAPSIS":"470.277","OBJECT_TYPE":"DEBRIS","RCS_SIZE":"SMALL","COUNTRY_CODE":"CIS","LAUNCH_DATE":"1993-06-16","SITE":"PKMTR","DECAY_DATE":"2012-01-04","FILE":"1235894","GP_ID":"87176611","TLE_LINE0":"0 COSMOS 2251 DEB","TLE_LINE1":"1 37525U 93036BNE 11267.72978318  .00218593  00000-0  13283-1 0  9991","TLE_LINE2":"2 37525 073.9632 275.7638 0125650 310.6172 071.5382 15.03076548107970"},{"CCSDS_OMM_VERS":"3.0","COMMENT":"GENERATED VIA SPACE-TRACK.ORG API","CREATION_DATE":"2013-03-17T01:40:19","ORIGINATOR":"18 SPCS","OBJECT_NAME":"COSMOS 2251 DEB","OBJECT_ID":"1993-036BNF","CENTER_NAME":"EARTH","REF_FRAME":"TEME","TIME_SYSTEM":"UTC","MEAN_ELEMENT_THEORY":"SGP4","EPOCH":"2013-03-16T03:31:39.251712","MEAN_MOTION":"15.91298734","ECCENTRICITY":"0.00035940","INCLINATION":"73.8812","RA_OF_ASC_NODE":"239.4904","ARG_OF_PERICENTER":"6.3408","MEAN_ANOMALY":"115.1010","EPHEMERIS_TYPE":"0","CLASSIFICATION_TYPE":"U","NORAD_CAT_ID":"37526","ELEMENT_SET_NO":"999","REV_AT_EPOCH":"19530","BSTAR":"0.01060000000000","MEAN_MOTION_DOT":"0.03050071","MEAN_MOTION_DDOT":"0.0080001000000","SEMIMAJOR_AXIS":"6676.788","PERIOD":"90.492","APOAPSIS":"301.053","PERIAPSIS":"296.254","OBJECT_TYPE":"DEBRIS","RCS_SIZE":"SMALL","COUNTRY_CODE":"CIS","LAUNCH_DATE":"1993-06-16","SITE":"PKMTR","DECAY_DATE":"2013-03-17","FILE":"1455654","GP_ID":"92432469","TLE_LINE0":"0 COSMOS 2251 DEB","TLE_LINE1":"1 37526U 93036BNF 13075.14698208  .03050071  80001-2  10600-1 0  9993","TLE_LINE2":"2 37526 073.8812 239.4904 0003594 006.3408 115.1010 15.91298734195303"},{"CCSDS_OMM_VERS":"3.0","COMMENT":"GENERATED VIA SPACE-TRACK.ORG API","CREATION_DATE":"2024-01-10T06:36:17","ORIGINATOR":"18 SPCS","OBJECT_NAME":"COSMOS 2251 DEB","OBJECT_ID":"1993-036BNG","CENTER_NAME":"EARTH","REF_FRAME":"TEME","TIME_SYSTEM":"UTC","MEAN_ELEMENT_THEORY":"SGP4","EPOCH":"2024-01-09T17:00:06.104736","MEAN_MOTION":"15.19471427","ECCENTRICITY":"0.00216830","INCLINATION":"73.9914","RA_OF_ASC_NODE":"20.0982","ARG_OF_PERICENTER":"328.8957","MEAN_ANOMALY":"31.0954","EPHEMERIS_TYPE":"0","CLASSIFICATION_TYPE":"U","NORAD_CAT_ID":"37527","ELEMENT_SET_NO":"999","REV_AT_EPOCH":"76905","BSTAR":"0.00559300000000","MEAN_MOTION_DOT":"0.00121353","MEAN_MOTION_DDOT":"0.0000000000000","SEMIMAJOR_AXIS":"6885.574","PERIOD":"94.770","APOAPSIS":"522.369","PERIAPSIS":"492.509","OBJECT_TYPE":"DEBRIS","RCS_SIZE":"SMALL","COUNTRY_CODE":"CIS","LAUNCH_DATE":"1993-06-16","SITE":"PKMTR","DECAY_DATE":"2024-04-18","FILE":"4157865","GP_ID":"246678127","TLE_LINE0":"0 COSMOS 2251 DEB","TLE_LINE1":"1 37527U 93036BNG 24009.70840399  .00121353  00000-0  55930-2 0  9999","TLE_LINE2":"2 37527  73.9914  20.0982 0021683 328.8957  31.0954 15.19471427769052"},{"CCSDS_OMM_VERS":"3.0","COMMENT":"GENERATED VIA SPACE-TRACK.ORG API","CREATION_DATE":"2026-03-24T04:52:42","ORIGINATOR":"18 SPCS","OBJECT_NAME":"COSMOS 2251 DEB","OBJECT_ID":"1993-036BNH","CENTER_NAME":"EARTH","REF_FRAME":"TEME","TIME_SYSTEM":"UTC","MEAN_ELEMENT_THEORY":"SGP4","EPOCH":"2026-03-23T07:30:38.039328","MEAN_MOTION":"14.50897580","ECCENTRICITY":"0.00193381","INCLINATION":"74.0353","RA_OF_ASC_NODE":"293.0716","ARG_OF_PERICENTER":"55.1329","MEAN_ANOMALY":"305.1646","EPHEMERIS_TYPE":"0","CLASSIFICATION_TYPE":"U","NORAD_CAT_ID":"37528","ELEMENT_SET_NO":"999","REV_AT_EPOCH":"87389","BSTAR":"0.00033524656000","MEAN_MOTION_DOT":"0.00001299","MEAN_MOTION_DDOT":"0.0000000000000","SEMIMAJOR_AXIS":"7100.855","PERIOD":"99.249","APOAPSIS":"736.452","PERIAPSIS":"708.989","OBJECT_TYPE":"DEBRIS","RCS_SIZE":"SMALL","COUNTRY_CODE":"CIS","LAUNCH_DATE":"1993-06-16","SITE":"PKMTR","DECAY_DATE":null,"FILE":"5095836","GP_ID":"316894880","TLE_LINE0":"0 COSMOS 2251 DEB","TLE_LINE1":"1 37528U 93036BNH 26082.31294027  .00001299  00000-0  33525-3 0  9994","TLE_LINE2":"2 37528  74.0353 293.0716 0019338  55.1329 305.1646 14.50897580873893"},{"CCSDS_OMM_VERS":"3.0","COMMENT":"GENERATED VIA SPACE-TRACK.ORG API","CREATION_DATE":"2024-10-31T20:11:54","ORIGINATOR":"18 SPCS","OBJECT_NAME":"COSMOS 2251 DEB","OBJECT_ID":"1993-036BNJ","CENTER_NAME":"EARTH","REF_FRAME":"TEME","TIME_SYSTEM":"UTC","MEAN_ELEMENT_THEORY":"SGP4","EPOCH":"2024-10-30T20:27:45.830592","MEAN_MOTION":"15.54658138","ECCENTRICITY":"0.00133060","INCLINATION":"73.9835","RA_OF_ASC_NODE":"352.0467","ARG_OF_PERICENTER":"321.8581","MEAN_ANOMALY":"38.1691","EPHEMERIS_TYPE":"0","CLASSIFICATION_TYPE":"U","NORAD_CAT_ID":"37529","ELEMENT_SET_NO":"999","REV_AT_EPOCH":"60311","BSTAR":"0.02231000000000","MEAN_MOTION_DOT":"0.01651720","MEAN_MOTION_DDOT":"0.0000000000000","SEMIMAJOR_AXIS":"6781.284","PERIOD":"92.625","APOAPSIS":"412.172","PERIAPSIS":"394.125","OBJECT_TYPE":"DEBRIS","RCS_SIZE":"SMALL","COUNTRY_CODE":"CIS","LAUNCH_DATE":"1993-06-16","SITE":"PKMTR","DECAY_DATE":"2024-11-13","FILE":"4539672","GP_ID":"271995392","TLE_LINE0":"0 COSMOS 2251 DEB","TLE_LINE1":"1 37529U 93036BNJ 24304.85261378  .01651720  00000-0  22310-1 0  9991","TLE_LINE2":"2 37529  73.9835 352.0467 0013306 321.8581  38.1691 15.54658138603116"},{"CCSDS_OMM_VERS":"3.0","COMMENT":"GENERATED VIA SPACE-TRACK.ORG API","CREATION_DATE":"2026-03-28T16:46:22","ORIGINATOR":"18 SPCS","OBJECT_NAME":"COSMOS 2251 DEB","OBJECT_ID":"1993-036BNK","CENTER_NAME":"EARTH","REF_FRAME":"TEME","TIME_SYSTEM":"UTC","MEAN_ELEMENT_THEORY":"SGP4","EPOCH":"2026-03-28T10:31:50.211840","MEAN_MOTION":"14.34656538","ECCENTRICITY":"0.00267800","INCLINATION":"74.0346","RA_OF_ASC_NODE":"140.0471","ARG_OF_PERICENTER":"182.4943","MEAN_ANOMALY":"191.0081","EPHEMERIS_TYPE":"0","CLASSIFICATION_TYPE":"U","NORAD_CAT_ID":"37530","ELEMENT_SET_NO":"999","REV_AT_EPOCH":"86748","BSTAR":"0.00018277000000","MEAN_MOTION_DOT":"0.00000493","MEAN_MOTION_DDOT":"0.0000000000000","SEMIMAJOR_AXIS":"7154.345","PERIOD":"100.372","APOAPSIS":"795.369","PERIAPSIS":"757.051","OBJECT_TYPE":"DEBRIS","RCS_SIZE":"SMALL","COUNTRY_CODE":"CIS","LAUNCH_DATE":"1993-06-16","SITE":"PKMTR","DECAY_DATE":null,"FILE":"5103715","GP_ID":"317424544","TLE_LINE0":"0 COSMOS 2251 DEB","TLE_LINE1":"1 37530U 93036BNK 26087.43877560  .00000493  00000-0  18277-3 0  9996","TLE_LINE2":"2 37530  74.0346 140.0471 0026780 182.4943 191.0081 14.34656538867483"}]